STARLINK-36489          
1 67328U 26002Z   26015.16670139 -.01437116  00000+0 -56925-2 0  9996
2 67328  42.9980 274.6755 0001703 272.2268  20.1917 15.88611170  2972
STARLINK-36496          
1 67329U 26002AA  26015.16670139 -.01412992  00000+0 -55868-2 0  9997
2 67329  42.9981 274.6622 0001166 276.2030  21.4236 15.88603447  2797
STARLINK-36483          
1 67330U 26002AB  26015.16670139 -.01447528  00000+0 -57402-2 0  9998
2 67330  42.9980 274.6460 0001880 272.3806  31.5372 15.88608590  2976
STARLINK-36494          
1 67331U 26002AC  26015.16670139 -.01428423  00000+0 -56532-2 0  9995
2 67331  42.9980 274.6684 0002146 271.9840  23.1796 15.88603759  2973
STARLINK-36492          
1 67332U 26002AD  26015.16670139 -.01459952  00000+0 -58026-2 0  9997
2 67332  42.9982 274.6512 0001719 268.2094  33.6094 15.88592608  2978
STARLINK-36427          
1 67333U 26002AE  26015.16670139 -.01435349  60968-3 -33586-2 0  9999
2 67333  42.9970 274.3522 0001945 282.2574 137.2365 15.96118776  2874
SHIJIAN-29B (SJ-29B)    
1 67403U 25315C   26015.10209669 -.00000051  00000+0  00000+0 0  9998
2 67403   3.0103  99.1595 0000822 330.2513 154.9933  1.00271799   152
YAOGAN-50 01            
1 67433U 26006A   26015.19550979  .00000793  00000+0  22579-3 0  9992
2 67433 141.9984 195.7173 0164900 116.9572 244.8096 14.21837012   232
CZ-6A R/B               
1 67434U 26006B   26013.71733058  .00000541  00000+0  30805-4 0  9993
2 67434 142.0438 188.1412 0201725  82.0696 280.2897 14.62247694    24
HULIANWANG DIGUI 18A    
1 67435U 26007A   26014.04715434 -.00000128  00000+0  14297-4 0  9999
2 67435  50.0150 292.8601 0008512 274.9717  85.0211 13.92612775    65
HULIANWANG DIGUI 18B    
1 67436U 26007B   26013.90365492 -.00000130  00000+0  12827-4 0  9999
2 67436  50.0165 293.4472 0009652 261.3170  98.6636 13.92454399    49
HULIANWANG DIGUI 18C    
1 67437U 26007C   26015.19541657 -.00000057  00000+0  69628-4 0  9991
2 67437  50.0030 288.2738 0008143 271.3327  88.6639 13.92511123   228
