CCSDS_OMM_VERS = 2.0
CREATION_DATE  = 
ORIGINATOR     = 

OBJECT_NAME    = STARLINK-36489
OBJECT_ID      = 2026-002Z
CENTER_NAME    = EARTH
REF_FRAME      = TEME
TIME_SYSTEM    = UTC
MEAN_ELEMENT_THEORY = SGP/SGP4

EPOCH          = 2026-01-15T04:00:03.000096
MEAN_MOTION    = 15.88611170
ECCENTRICITY   = .0001703
INCLINATION    = 42.9980
RA_OF_ASC_NODE = 274.6755
ARG_OF_PERICENTER = 272.2268
MEAN_ANOMALY   = 20.1917

EPHEMERIS_TYPE = 0
CLASSIFICATION_TYPE = U
NORAD_CAT_ID   = 67328
ELEMENT_SET_NO = 999
REV_AT_EPOCH   = 297
BSTAR          = -.56925E-2
MEAN_MOTION_DOT = -.1437116E-1
MEAN_MOTION_DDOT = 0

CCSDS_OMM_VERS = 2.0
CREATION_DATE  = 
ORIGINATOR     = 

OBJECT_NAME    = STARLINK-36496
OBJECT_ID      = 2026-002AA
CENTER_NAME    = EARTH
REF_FRAME      = TEME
TIME_SYSTEM    = UTC
MEAN_ELEMENT_THEORY = SGP/SGP4

EPOCH          = 2026-01-15T04:00:03.000096
MEAN_MOTION    = 15.88603447
ECCENTRICITY   = .0001166
INCLINATION    = 42.9981
RA_OF_ASC_NODE = 274.6622
ARG_OF_PERICENTER = 276.2030
MEAN_ANOMALY   = 21.4236

EPHEMERIS_TYPE = 0
CLASSIFICATION_TYPE = U
NORAD_CAT_ID   = 67329
ELEMENT_SET_NO = 999
REV_AT_EPOCH   = 279
BSTAR          = -.55868E-2
MEAN_MOTION_DOT = -.1412992E-1
MEAN_MOTION_DDOT = 0

CCSDS_OMM_VERS = 2.0
CREATION_DATE  = 
ORIGINATOR     = 

OBJECT_NAME    = STARLINK-36483
OBJECT_ID      = 2026-002AB
CENTER_NAME    = EARTH
REF_FRAME      = TEME
TIME_SYSTEM    = UTC
MEAN_ELEMENT_THEORY = SGP/SGP4

EPOCH          = 2026-01-15T04:00:03.000096
MEAN_MOTION    = 15.88608590
ECCENTRICITY   = .000188
INCLINATION    = 42.9980
RA_OF_ASC_NODE = 274.6460
ARG_OF_PERICENTER = 272.3806
MEAN_ANOMALY   = 31.5372

EPHEMERIS_TYPE = 0
CLASSIFICATION_TYPE = U
NORAD_CAT_ID   = 67330
ELEMENT_SET_NO = 999
REV_AT_EPOCH   = 297
BSTAR          = -.57402E-2
MEAN_MOTION_DOT = -.1447528E-1
MEAN_MOTION_DDOT = 0

CCSDS_OMM_VERS = 2.0
CREATION_DATE  = 
ORIGINATOR     = 

OBJECT_NAME    = STARLINK-36494
OBJECT_ID      = 2026-002AC
CENTER_NAME    = EARTH
REF_FRAME      = TEME
TIME_SYSTEM    = UTC
MEAN_ELEMENT_THEORY = SGP/SGP4

EPOCH          = 2026-01-15T04:00:03.000096
MEAN_MOTION    = 15.88603759
ECCENTRICITY   = .0002146
INCLINATION    = 42.9980
RA_OF_ASC_NODE = 274.6684
ARG_OF_PERICENTER = 271.9840
MEAN_ANOMALY   = 23.1796

EPHEMERIS_TYPE = 0
CLASSIFICATION_TYPE = U
NORAD_CAT_ID   = 67331
ELEMENT_SET_NO = 999
REV_AT_EPOCH   = 297
BSTAR          = -.56532E-2
MEAN_MOTION_DOT = -.1428423E-1
MEAN_MOTION_DDOT = 0

CCSDS_OMM_VERS = 2.0
CREATION_DATE  = 
ORIGINATOR     = 

OBJECT_NAME    = STARLINK-36492
OBJECT_ID      = 2026-002AD
CENTER_NAME    = EARTH
REF_FRAME      = TEME
TIME_SYSTEM    = UTC
MEAN_ELEMENT_THEORY = SGP/SGP4

EPOCH          = 2026-01-15T04:00:03.000096
MEAN_MOTION    = 15.88592608
ECCENTRICITY   = .0001719
INCLINATION    = 42.9982
RA_OF_ASC_NODE = 274.6512
ARG_OF_PERICENTER = 268.2094
MEAN_ANOMALY   = 33.6094

EPHEMERIS_TYPE = 0
CLASSIFICATION_TYPE = U
NORAD_CAT_ID   = 67332
ELEMENT_SET_NO = 999
REV_AT_EPOCH   = 297
BSTAR          = -.58026E-2
MEAN_MOTION_DOT = -.1459952E-1
MEAN_MOTION_DDOT = 0

CCSDS_OMM_VERS = 2.0
CREATION_DATE  = 
ORIGINATOR     = 

OBJECT_NAME    = STARLINK-36427
OBJECT_ID      = 2026-002AE
CENTER_NAME    = EARTH
REF_FRAME      = TEME
TIME_SYSTEM    = UTC
MEAN_ELEMENT_THEORY = SGP/SGP4

EPOCH          = 2026-01-15T04:00:03.000096
MEAN_MOTION    = 15.96118776
ECCENTRICITY   = .0001945
INCLINATION    = 42.9970
RA_OF_ASC_NODE = 274.3522
ARG_OF_PERICENTER = 282.2574
MEAN_ANOMALY   = 137.2365

EPHEMERIS_TYPE = 0
CLASSIFICATION_TYPE = U
NORAD_CAT_ID   = 67333
ELEMENT_SET_NO = 999
REV_AT_EPOCH   = 287
BSTAR          = -.33586E-2
MEAN_MOTION_DOT = -.1435349E-1
MEAN_MOTION_DDOT = .60968E-3

CCSDS_OMM_VERS = 2.0
CREATION_DATE  = 
ORIGINATOR     = 

OBJECT_NAME    = SHIJIAN-29B (SJ-29B)
OBJECT_ID      = 2025-315C
CENTER_NAME    = EARTH
REF_FRAME      = TEME
TIME_SYSTEM    = UTC
MEAN_ELEMENT_THEORY = SGP/SGP4

EPOCH          = 2026-01-15T02:27:01.154016
MEAN_MOTION    = 1.00271799
ECCENTRICITY   = .0000822
INCLINATION    = 3.0103
RA_OF_ASC_NODE = 99.1595
ARG_OF_PERICENTER = 330.2513
MEAN_ANOMALY   = 154.9933

EPHEMERIS_TYPE = 0
CLASSIFICATION_TYPE = U
NORAD_CAT_ID   = 67403
ELEMENT_SET_NO = 999
REV_AT_EPOCH   = 15
BSTAR          = 0
MEAN_MOTION_DOT = -.51E-6
MEAN_MOTION_DDOT = 0

CCSDS_OMM_VERS = 2.0
CREATION_DATE  = 
ORIGINATOR     = 

OBJECT_NAME    = YAOGAN-50 01
OBJECT_ID      = 2026-006A
CENTER_NAME    = EARTH
REF_FRAME      = TEME
TIME_SYSTEM    = UTC
MEAN_ELEMENT_THEORY = SGP/SGP4

EPOCH          = 2026-01-15T04:41:32.045856
MEAN_MOTION    = 14.21837012
ECCENTRICITY   = .01649
INCLINATION    = 141.9984
RA_OF_ASC_NODE = 195.7173
ARG_OF_PERICENTER = 116.9572
MEAN_ANOMALY   = 244.8096

EPHEMERIS_TYPE = 0
CLASSIFICATION_TYPE = U
NORAD_CAT_ID   = 67433
ELEMENT_SET_NO = 999
REV_AT_EPOCH   = 23
BSTAR          = .22579E-3
MEAN_MOTION_DOT = .793E-5
MEAN_MOTION_DDOT = 0

CCSDS_OMM_VERS = 2.0
CREATION_DATE  = 
ORIGINATOR     = 

OBJECT_NAME    = CZ-6A R/B
OBJECT_ID      = 2026-006B
CENTER_NAME    = EARTH
REF_FRAME      = TEME
TIME_SYSTEM    = UTC
MEAN_ELEMENT_THEORY = SGP/SGP4

EPOCH          = 2026-01-13T17:12:57.362112
MEAN_MOTION    = 14.62247694
ECCENTRICITY   = .02017257
INCLINATION    = 142.0438
RA_OF_ASC_NODE = 188.1412
ARG_OF_PERICENTER = 82.0696
MEAN_ANOMALY   = 280.2897

EPHEMERIS_TYPE = 0
CLASSIFICATION_TYPE = U
NORAD_CAT_ID   = 67434
ELEMENT_SET_NO = 999
REV_AT_EPOCH   = 2
BSTAR          = .30805067E-4
MEAN_MOTION_DOT = .541E-5
MEAN_MOTION_DDOT = 0

CCSDS_OMM_VERS = 2.0
CREATION_DATE  = 
ORIGINATOR     = 

OBJECT_NAME    = HULIANWANG DIGUI 18A
OBJECT_ID      = 2026-007A
CENTER_NAME    = EARTH
REF_FRAME      = TEME
TIME_SYSTEM    = UTC
MEAN_ELEMENT_THEORY = SGP/SGP4

EPOCH          = 2026-01-14T01:07:54.134976
MEAN_MOTION    = 13.92612775
ECCENTRICITY   = .0008512
INCLINATION    = 50.0150
RA_OF_ASC_NODE = 292.8601
ARG_OF_PERICENTER = 274.9717
MEAN_ANOMALY   = 85.0211

EPHEMERIS_TYPE = 0
CLASSIFICATION_TYPE = U
NORAD_CAT_ID   = 67435
ELEMENT_SET_NO = 999
REV_AT_EPOCH   = 6
BSTAR          = .14297E-4
MEAN_MOTION_DOT = -.128E-5
MEAN_MOTION_DDOT = 0

CCSDS_OMM_VERS = 2.0
CREATION_DATE  = 
ORIGINATOR     = 

OBJECT_NAME    = HULIANWANG DIGUI 18B
OBJECT_ID      = 2026-007B
CENTER_NAME    = EARTH
REF_FRAME      = TEME
TIME_SYSTEM    = UTC
MEAN_ELEMENT_THEORY = SGP/SGP4

EPOCH          = 2026-01-13T21:41:15.785088
MEAN_MOTION    = 13.92454399
ECCENTRICITY   = .0009652
INCLINATION    = 50.0165
RA_OF_ASC_NODE = 293.4472
ARG_OF_PERICENTER = 261.3170
MEAN_ANOMALY   = 98.6636

EPHEMERIS_TYPE = 0
CLASSIFICATION_TYPE = U
NORAD_CAT_ID   = 67436
ELEMENT_SET_NO = 999
REV_AT_EPOCH   = 4
BSTAR          = .12827E-4
MEAN_MOTION_DOT = -.13E-5
MEAN_MOTION_DDOT = 0

CCSDS_OMM_VERS = 2.0
CREATION_DATE  = 
ORIGINATOR     = 

OBJECT_NAME    = HULIANWANG DIGUI 18C
OBJECT_ID      = 2026-007C
CENTER_NAME    = EARTH
REF_FRAME      = TEME
TIME_SYSTEM    = UTC
MEAN_ELEMENT_THEORY = SGP/SGP4

EPOCH          = 2026-01-15T04:41:23.991648
MEAN_MOTION    = 13.92511123
ECCENTRICITY   = .0008143
INCLINATION    = 50.0030
RA_OF_ASC_NODE = 288.2738
ARG_OF_PERICENTER = 271.3327
MEAN_ANOMALY   = 88.6639

EPHEMERIS_TYPE = 0
CLASSIFICATION_TYPE = U
NORAD_CAT_ID   = 67437
ELEMENT_SET_NO = 999
REV_AT_EPOCH   = 22
BSTAR          = .69628E-4
MEAN_MOTION_DOT = -.57E-6
MEAN_MOTION_DDOT = 0

